{
    "links": {
        "self": "http://www.neowsapp.com/rest/v1/neo/3589544?api_key=iIulBulltgU6a56xZRHN4H3l9WmuAYTsLGpBGhQ2"
    },
    "id": "3589544",
    "neo_reference_id": "3589544",
    "name": "(2011 WN69)",
    "designation": "2011 WN69",
    "nasa_jpl_url": "http://ssd.jpl.nasa.gov/sbdb.cgi?sstr=3589544",
    "absolute_magnitude_h": 26.2,
    "estimated_diameter": {
        "kilometers": {
            "estimated_diameter_min": 0.0152951935,
            "estimated_diameter_max": 0.0342010925
        },
        "meters": {
            "estimated_diameter_min": 15.2951935344,
            "estimated_diameter_max": 34.201092472
        },
        "miles": {
            "estimated_diameter_min": 0.0095039897,
            "estimated_diameter_max": 0.021251567
        },
        "feet": {
            "estimated_diameter_min": 50.1810827555,
            "estimated_diameter_max": 112.2083122258
        }
    },
    "is_potentially_hazardous_asteroid": false,
    "close_approach_data": [
        {
            "close_approach_date": "2011-11-25",
            "close_approach_date_full": "2011-Nov-25 09:32",
            "epoch_date_close_approach": 1322213520000,
            "relative_velocity": {
                "kilometers_per_second": "23.8812207615",
                "kilometers_per_hour": "85972.3947413788",
                "miles_per_hour": "53419.9027213862"
            },
            "miss_distance": {
                "astronomical": "0.0039122177",
                "lunar": "1.5218526853",
                "kilometers": "585259.434896299",
                "miles": "363663.3495509662"
            },
            "orbiting_body": "Moon"
        },
        {
            "close_approach_date": "2011-11-25",
            "close_approach_date_full": "2011-Nov-25 14:00",
            "epoch_date_close_approach": 1322229600000,
            "relative_velocity": {
                "kilometers_per_second": "23.8639949881",
                "kilometers_per_hour": "85910.3819572579",
                "miles_per_hour": "53381.3703889417"
            },
            "miss_distance": {
                "astronomical": "0.0037401749",
                "lunar": "1.4549280361",
                "kilometers": "559522.198467463",
                "miles": "347670.9724104694"
            },
            "orbiting_body": "Earth"
        },
        {
            "close_approach_date": "2067-05-04",
            "close_approach_date_full": "2067-May-04 09:51",
            "epoch_date_close_approach": 3071728260000,
            "relative_velocity": {
                "kilometers_per_second": "34.021607112",
                "kilometers_per_hour": "122477.7856031636",
                "miles_per_hour": "76102.9329488102"
            },
            "miss_distance": {
                "astronomical": "0.3307087508",
                "lunar": "128.6457040612",
                "kilometers": "49473324.710040796",
                "miles": "30741298.4818671448"
            },
            "orbiting_body": "Earth"
        }
    ],
    "orbital_data": {
        "orbit_id": "7",
        "orbit_determination_date": "2019-07-17 06:09:40",
        "first_observation_date": "2011-11-26",
        "last_observation_date": "2011-11-30",
        "data_arc_in_days": 4,
        "observations_used": 42,
        "orbit_uncertainty": "8",
        "minimum_orbit_intersection": ".000566887",
        "jupiter_tisserand_invariant": "2.933",
        "epoch_osculation": "2455893.5",
        "eccentricity": ".7801836541558743",
        "semi_major_axis": "2.516608823557039",
        "inclination": "6.040715089428617",
        "ascending_node_longitude": "243.2797728190625",
        "orbital_period": "1458.216470659928",
        "perihelion_distance": ".5531917555133924",
        "perihelion_argument": "89.52477683358529",
        "aphelion_distance": "4.480025891600686",
        "perihelion_time": "2455847.314021458483",
        "mean_anomaly": "11.40225241552885",
        "mean_motion": ".2468769261926379",
        "equinox": "J2000",
        "orbit_class": {
            "orbit_class_type": "APO",
            "orbit_class_description": "Near-Earth asteroid orbits which cross the Earth’s orbit similar to that of 1862 Apollo",
            "orbit_class_range": "a (semi-major axis) > 1.0 AU; q (perihelion) < 1.017 AU"
        }
    },
    "is_sentry_object": false
}